YAOGAN-36 04C           
1 54750U 22171E   26068.78871400  .00016196  00000+0  54592-3 0  9991
2 54750  34.9797  96.6578 0006685 275.3761  84.6192 15.29852307180246
STARLINK-32245          
1 62133U 24222V   26068.52852592  .00022535  00000+0  82597-3 0  9997
2 62133  42.9989 137.1483 0001484 283.7594  76.3092 15.27577866 72886
